NORAD_CAT_ID,OBJECT_NAME,OBJECT_TYPE,EPOCH,MEAN_MOTION,ECCENTRICITY,INCLINATION,RA_OF_ASC_NODE,ARG_OF_PERICENTER,MEAN_ANOMALY,BSTAR,MEAN_MOTION_DOT,MEAN_MOTION_DDOT,TLE_LINE0,TLE_LINE1,TLE_LINE2,SEMIMAJOR_AXIS,PERIOD,APOGEE,PERIGEE,DECAYED
51852.0,STARLINK-3542,PAYLOAD,2022-04-08 06:00:00,15.49757188,0.0001363,53.2171,329.134,51.2673,9.6932,-0.01191,-0.00622384,0.0,0 STARLINK-3542,1 51852U 22022A   22098.25001157 -.00622384  00000-0 -11910-1 0  9991,2 51852  53.2171 329.1340 0001363  51.2673   9.6932 15.49757188  6854,6795.573,92.918,418.364,416.512,0.0
51852.0,STARLINK-3542,PAYLOAD,2022-04-08 14:00:03,15.49309363,0.0001533,53.2174,327.5367,45.0736,76.5146,-0.014018,-0.00721839,0.0,0 STARLINK-3542,1 51852U 22022A   22098.58336806 -.00721839  00000-0 -14018-1 0  9996,2 51852  53.2174 327.5367 0001533  45.0736  76.5146 15.49309363  6913,6796.882,92.945,419.789,417.705,0.0
51852.0,STARLINK-3542,PAYLOAD,2022-04-08 22:00:00,15.4879852,0.0001817,53.2173,325.9453,39.9669,141.403,-0.01424,-0.00720315,0.0,0 STARLINK-3542,1 51852U 22022A   22098.91667824 -.00720315  00000-0 -14240-1 0  9995,2 51852  53.2173 325.9453 0001817  39.9669 141.4030 15.48798520  3672,6798.377,92.975,421.477,419.006,0.0
51852.0,STARLINK-3542,PAYLOAD,2022-04-09 14:00:01,15.47778138,0.0001479,53.2176,322.7602,49.1899,250.1659,-0.014732,-0.00718985,0.0,0 STARLINK-3542,1 51852U 22022A   22099.58334491 -.00718985  00000-0 -14732-1 0  9996,2 51852  53.2176 322.7602 0001479  49.1899 250.1659 15.47778138  3697,6801.364000000001,93.037,424.235,422.223,0.0
51852.0,STARLINK-3542,PAYLOAD,2022-04-09 22:00:00,15.47270763,0.000172,53.2175,321.1726,35.3886,322.0383,-0.015105,-0.00723877,0.0,0 STARLINK-3542,1 51852U 22022A   22099.91667824 -.00723877  00000-0 -15105-1 0  9993,2 51852  53.2175 321.1726 0001720  35.3886 322.0383 15.47270763  7113,6802.851,93.067,425.886,423.546,0.0
51852.0,STARLINK-3542,PAYLOAD,2022-04-10 14:00:01,15.46248943,0.000158,53.2175,317.9949,42.8552,68.8812,-0.015555,-0.00719721,0.0,0 STARLINK-3542,1 51852U 22022A   22100.58334491 -.00719721  00000-0 -15555-1 0  9992,2 51852  53.2175 317.9949 0001580  42.8552  68.8812 15.46248943  3695,6805.848000000001,93.129,428.788,426.637,0.0
51852.0,STARLINK-3542,PAYLOAD,2022-04-10 22:00:00,15.45739091,0.0001839,53.2172,316.4108,39.684,128.2863,-0.015846,-0.00720363,0.0,0 STARLINK-3542,1 51852U 22022A   22100.91667824 -.00720363  00000-0 -15846-1 0  9995,2 51852  53.2172 316.4108 0001839  39.6840 128.2863 15.45739091  3699,6807.344,93.159,430.461,427.957,0.0
51852.0,STARLINK-3542,PAYLOAD,2022-04-11 04:00:01,15.45356408,0.0001464,53.2171,315.2217,48.8814,70.9276,-0.016041,-0.00719661,0.0,0 STARLINK-3542,1 51852U 22022A   22101.16668981 -.00719661  00000-0 -16041-1 0  9995,2 51852  53.2171 315.2217 0001464  48.8814  70.9276 15.45356408  7314,6808.468000000003,93.182,431.33,429.336,0.0
51852.0,STARLINK-3542,PAYLOAD,2022-04-11 14:00:01,15.44718546,0.0001512,53.2175,313.2403,50.0411,228.5615,-0.01636,-0.00718188,0.0,0 STARLINK-3542,1 51852U 22022A   22101.58334491 -.00718188  00000-0 -16360-1 0  9994,2 51852  53.2175 313.2403 0001512  50.0411 228.5615 15.44718546  3694,6810.342,93.221,433.237,431.177,0.0
51852.0,STARLINK-3542,PAYLOAD,2022-04-11 22:00:00,15.44210508,0.0001673,53.2174,311.6601,38.7521,294.2453,-0.016759,-0.00722692,0.0,0 STARLINK-3542,1 51852U 22022A   22101.91667824 -.00722692  00000-0 -16759-1 0  9997,2 51852  53.2174 311.6601 0001673  38.7521 294.2453 15.44210508  3671,6811.8359999999975,93.252,434.84,432.561,0.0
51852.0,STARLINK-3542,PAYLOAD,2022-04-12 04:00:00,15.43828392,0.0001351999999999,53.2172,310.4734,58.9629,224.4301,-0.016993,-0.007232,0.0,0 STARLINK-3542,1 51852U 22022A   22102.16667824 -.00723200  00000-0 -16993-1 0  9991,2 51852  53.2172 310.4734 0001352  58.9629 224.4301 15.43828392  7463,6812.96,93.275,435.746,433.904,0.0
51852.0,STARLINK-3542,PAYLOAD,2022-04-12 14:00:01,15.43188358,0.0001626999999999,53.2175,308.4969,39.6028,40.3511,-0.017234,-0.0071812,0.0,0 STARLINK-3542,1 51852U 22022A   22102.58334491 -.00718120  00000-0 -17234-1 0  9992,2 51852  53.2175 308.4969 0001627  39.6028  40.3511 15.43188358  3709,6814.843000000003,93.313,437.817,435.6,0.0
51852.0,STARLINK-3542,PAYLOAD,2022-04-12 22:00:00,15.42679412,0.0001929,53.2175,306.9203,34.5259,97.9844,-0.017586,-0.00720158,0.0,0 STARLINK-3542,1 51852U 22022A   22102.91667824 -.00720158  00000-0 -17586-1 0  9992,2 51852  53.2175 306.9203 0001929  34.5259  97.9844 15.42679412  3676,6816.342,93.344,439.522,436.892,0.0
51852.0,STARLINK-3542,PAYLOAD,2022-04-13 14:00:03,15.41659249,0.0001604,53.2176,303.7643,50.6919,185.2257,-0.018161,-0.00718653,0.0,0 STARLINK-3542,1 51852U 22022A   22103.58336806 -.00718653  00000-0 -18161-1 0  9996,2 51852  53.2176 303.7643 0001604  50.6919 185.2257 15.41659249  7681,6819.349,93.406,442.3080000000001,440.12,0.0
51852.0,STARLINK-3542,PAYLOAD,2022-04-13 22:00:00,15.41149284,0.000177,53.2177,302.1913,40.1263,246.3816,-0.018498,-0.00719544,0.0,0 STARLINK-3542,1 51852U 22022A   22103.91667824 -.00719544  00000-0 -18498-1 0  9993,2 51852  53.2177 302.1913 0001770  40.1263 246.3816 15.41149284  3684,6820.853,93.437,443.925,441.511,0.0
51852.0,STARLINK-3542,PAYLOAD,2022-04-14 14:00:01,15.40129301,0.0001756,53.2177,299.043,32.8053,353.3046,-0.019123,-0.00719033,0.0,0 STARLINK-3542,1 51852U 22022A   22104.58334491 -.00719033  00000-0 -19123-1 0  9997,2 51852  53.2177 299.0430 0001756  32.8053 353.3046 15.40129301  7833,6823.864000000001,93.499,446.92800000000005,444.531,0.0
51852.0,STARLINK-3542,PAYLOAD,2022-04-14 22:00:00,15.39619248,0.000183,53.2176,297.4734,33.4931,41.4973,-0.01947,-0.00719757,0.0,0 STARLINK-3542,1 51852U 22022A   22104.91667824 -.00719757  00000-0 -19470-1 0  9991,2 51852  53.2176 297.4734 0001830  33.4931  41.4973 15.39619248  3681,6825.371,93.53,448.485,445.987,0.0
51852.0,STARLINK-3542,PAYLOAD,2022-04-15 14:00:01,15.38598312,0.0001812,53.2176,294.3324,39.9265,130.9895,-0.020059,-0.00717178,0.0,0 STARLINK-3542,1 51852U 22022A   22105.58334491 -.00717178  00000-0 -20059-1 0  9996,2 51852  53.2176 294.3324 0001812  39.9265 130.9895 15.38598312  7995,6828.39,93.592,451.49300000000005,449.018,0.0
51852.0,STARLINK-3542,PAYLOAD,2022-04-15 22:00:00,15.3808696,0.0001872,53.2174,292.7662,39.8579,178.1007,-0.020332,-0.00715024,0.0,0 STARLINK-3542,1 51852U 22022A   22105.91667824 -.00715024  00000-0 -20332-1 0  9994,2 51852  53.2174 292.7662 0001872  39.8579 178.1007 15.38086960  3663,6829.904,93.623,453.047,450.49,0.0
51852.0,STARLINK-3542,PAYLOAD,2022-04-16 14:00:01,15.37069938,0.0001774999999999,53.2176,289.6325,36.7488,273.4572,-0.021157,-0.00719368,0.0,0 STARLINK-3542,1 51852U 22022A   22106.58334491 -.00719368  00000-0 -21157-1 0  9990,2 51852  53.2176 289.6325 0001775  36.7488 273.4572 15.37069938  8142,6832.916,93.685,455.994,453.568,0.0
51852.0,STARLINK-3542,PAYLOAD,2022-04-16 22:00:01,15.36558399,0.0001564999999999,53.2174,288.07,42.4014,313.0729,-0.021451,-0.00717464,0.0,0 STARLINK-3542,1 51852U 22022A   22106.91668981 -.00717464  00000-0 -21451-1 0  9993,2 51852  53.2174 288.0700 0001565  42.4014 313.0729 15.36558399  3677,6834.433000000001,93.716,457.367,455.228,0.0
51852.0,STARLINK-3542,PAYLOAD,2022-04-17 14:00:01,15.35539779,0.000191,53.2174,284.9437,31.3426,52.639,-0.022236,-0.00719516,0.0,0 STARLINK-3542,1 51852U 22022A   22107.58334491 -.00719516  00000-0 -22236-1 0  9995,2 51852  53.2174 284.9437 0001910  31.3426  52.6390 15.35539779  8290,6837.455,93.778,460.626,458.014,0.0
51852.0,STARLINK-3542,PAYLOAD,2022-04-17 22:00:00,15.35025124,0.0001807,53.2173,283.3848,37.1292,90.2194,-0.022349,-0.00711897,0.0,0 STARLINK-3542,1 51852U 22022A   22107.91667824 -.00711897  00000-0 -22349-1 0  9990,2 51852  53.2173 283.3848 0001807  37.1292  90.2194 15.35025124  3679,6838.983,93.81,462.084,459.612,0.0
51852.0,STARLINK-3542,PAYLOAD,2022-04-18 14:00:01,15.34008336,0.000198,53.2174,280.2657,36.1596,176.0829,-0.023252,-0.00716591,0.0,0 STARLINK-3542,1 51852U 22022A   22108.58334491 -.00716591  00000-0 -23252-1 0  9995,2 51852  53.2174 280.2657 0001980  36.1596 176.0829 15.34008336  3675,6842.005,93.872,465.224,462.515,0.0
51852.0,STARLINK-3542,PAYLOAD,2022-04-18 20:00:01,15.33626357,0.0001876,53.2173,279.0993,39.2574,114.1874,-0.02357,-0.00717512,0.0,0 STARLINK-3542,1 51852U 22022A   22108.83334491 -.00717512  00000-0 -23570-1 0  9990,2 51852  53.2173 279.0993 0001876  39.2574 114.1874 15.33626357  8493,6843.141,93.895,466.289,463.722,0.0
51852.0,STARLINK-3542,PAYLOAD,2022-04-18 22:00:00,15.33495576,0.0001754,53.2174,278.7102,41.9866,211.7837,-0.023456,-0.00711541,0.0,0 STARLINK-3542,1 51852U 22022A   22108.91667824 -.00711541  00000-0 -23456-1 0  9997,2 51852  53.2174 278.7102 0001754  41.9866 211.7837 15.33495576  3676,6843.53,93.903,466.595,464.194,0.0
51852.0,STARLINK-3542,PAYLOAD,2022-04-19 14:00:01,15.32479885,0.0001859,53.2176,275.5985,33.1225,301.8646,-0.024493,-0.00718877,0.0,0 STARLINK-3542,1 51852U 22022A   22109.58334491 -.00718877  00000-0 -24493-1 0  9993,2 51852  53.2176 275.5985 0001859  33.1225 301.8646 15.32479885  3673,6846.553000000001,93.965,469.691,467.145,0.0
51852.0,STARLINK-3542,PAYLOAD,2022-04-19 22:00:00,15.31967457,0.0001504,53.2174,274.0465,43.3274,331.3492,-0.024728,-0.00714446,0.0,0 STARLINK-3542,1 51852U 22022A   22109.91667824 -.00714446  00000-0 -24728-1 0  9998,2 51852  53.2174 274.0465 0001504  43.3274 331.3492 15.31967457  8658,6848.08,93.997,470.975,468.915,0.0
51852.0,STARLINK-3542,PAYLOAD,2022-04-20 14:00:01,15.30949859,0.0001922,53.2175,270.9423,32.4527,59.7647,-0.025703,-0.00718961,0.0,0 STARLINK-3542,1 51852U 22022A   22110.58334491 -.00718961  00000-0 -25703-1 0  9994,2 51852  53.2175 270.9423 0001922  32.4527  59.7647 15.30949859  3666,6851.114000000001,94.059,474.296,471.662,0.0
